TIANZHOU-10             
1 69049U 26102A   26157.60981134  .00029051  00000+0  34664-3 0  9994
2 69049  41.4693  26.3518 0009161 355.2486   4.8264 15.60358302  4193
QIANFAN-127             
1 69073U 26104A   26157.78004485  .00000103  00000+0  40682-4 0  9992
2 69073  88.9859 342.7902 0005139 133.8259 226.3357 14.21401881  3618
QIANFAN-128             
1 69074U 26104B   26157.34422640  .00000120  00000+0  51669-4 0  9998
2 69074  88.9864 342.8573 0004660 133.6738 226.4838 14.18045988  3543
QIANFAN-129             
1 69075U 26104C   26157.45528543  .00000134  00000+0  50424-4 0  9993
2 69075  88.9863 342.8175 0005036 141.9147 218.2403 14.25500617  3578
QIANFAN-130             
1 69076U 26104D   26157.47185923  .00000129  00000+0  55367-4 0  9992
2 69076  88.9863 342.8388 0004711 124.8795 235.2838 14.18735353  3562
QIANFAN-131             
1 69077U 26104E   26157.44381736  .00000110  00000+0  44430-4 0  9999
2 69077  88.9862 342.8344 0004252 140.1028 220.0476 14.20505824  3565
QIANFAN-132             
1 69078U 26104F   26157.34170298  .00000128  00000+0  55255-4 0  9994
2 69078  88.9863 342.8567 0005070 132.4440 227.7178 14.18147314  3549
QIANFAN-133             
1 69079U 26104G   26157.46674371  .00000124  00000+0  52285-4 0  9995
2 69079  88.9863 342.8380 0004659 141.9916 218.1603 14.19029121  3563
QIANFAN-134             
1 69080U 26104H   26157.60216075  .00000086  00000+0  34756-4 0  9996
2 69080  88.9864 342.8211 0005391 125.3281 234.8413 14.18663044  3587
QIANFAN-135             
1 69081U 26104J   26157.45617199  .00000119  00000+0  49513-4 0  9996
2 69081  88.9863 342.8365 0004514 153.6750 206.4670 14.19622051  3560
QIANFAN-136             
1 69082U 26104K   26157.45199254  .00000122  00000+0  50789-4 0  9995
2 69082  88.9862 342.8357 0004940 142.2779 217.8758 14.19914377  3567
QIANFAN-137             
1 69083U 26104L   26157.53271904  .00000133  00000+0  50518-4 0  9990
2 69083  88.9862 342.8102 0005628 135.4032 224.7614 14.25196748  3587
QIANFAN-138             
1 69084U 26104M   26157.79214778  .00000124  00000+0  51265-4 0  9995
2 69084  88.9863 342.7935 0004599 136.9712 223.1839 14.20300945  3616
QIANFAN-139             
1 69085U 26104N   26157.64631141  .00000088  00000+0  34092-4 0  9995
2 69085  88.9861 342.8086 0004172 131.6735 228.4813 14.20485543  3592
QIANFAN-140             
1 69086U 26104P   26157.36001452  .00000130  00000+0  53008-4 0  9997
2 69086  88.9863 342.8405 0004436 138.9972 221.1553 14.21392259  3555
QIANFAN-141             
1 69087U 26104Q   26157.63745817  .00000091  00000+0  35204-4 0  9992
2 69087  88.9864 342.8074 0003867 132.4936 227.6582 14.21094877  3597
QIANFAN-142             
1 69088U 26104R   26157.35069324  .00000124  00000+0  49820-4 0  9990
2 69088  88.9863 342.8390 0005291 127.1044 233.0631 14.21952429  3550
QIANFAN-143             
1 69089U 26104S   26157.40811800  .00000130  00000+0  51147-4 0  9993
2 69089  88.9863 342.8289 0004611 129.0377 231.1226 14.23171036  3562
QIANFAN-144             
1 69090U 26104T   26157.41399076  .00000134  00000+0  53482-4 0  9990
2 69090  88.9863 342.8299 0003963 120.6673 239.4909 14.22581820  3564
ZHUQUE-2E R/B           
1 69095U 26105A   26157.63812920  .00188571 -73276-6  46368-3 0  9997
2 69095  88.9719 195.7045 0459772 338.7390  19.5269 15.14327167  3553
2026-106A               
1 69097U 26106A   26155.63137572  .00009052  00000+0  54389-3 0  9996
2 69097  97.5095 237.9435 0013466 203.5034 156.5582 15.11037132  3085
2026-106B               
1 69098U 26106B   26155.63675397  .00006796  00000+0  42602-3 0  9996
2 69098  97.5082 237.9319 0014266 199.5733 160.4950 15.09575067  3086
2026-106C               
1 69099U 26106C   26155.63084001  .00008876  00000+0  53278-3 0  9995
2 69099  97.5097 237.9445 0013554 204.3760 155.6830 15.11076088  3082
2026-106D               
1 69100U 26106D   26155.62912235  .00008260  00000+0  49447-3 0  9996
2 69100  97.5062 237.9411 0013122 207.0214 153.0334 15.11202473  3085
2026-106E               
1 69101U 26106E   26155.62529263  .00009128  00000+0  54175-3 0  9990
2 69101  97.5073 237.9468 0015124 208.9127 151.1267 15.11460406  3083
DRAGON CRS-34           
1 69103U 26107A   26157.86947977  .00009276  00000+0  17237-3 0  9999
2 69103  51.6338 351.1688 0006978 142.0049 218.1433 15.49642340570157
QIANFAN-145             
1 69104U 26108A   26157.81292530  .00000288  00000+0  13842-3 0  9996
2 69104  89.0119  23.3758 0015636 146.5394 213.6785 14.16076637  2871
QIANFAN-146             
1 69105U 26108B   26157.32422719  .00000371  00000+0  15714-3 0  9990
2 69105  89.0123  23.4140 0015884 146.4922 213.7278 14.23384280  2810
